[{"OBJECT_NAME":"STARLINK-4049","OBJECT_ID":"2022-062L","EPOCH":"2026-03-09T05:22:23.441088","MEAN_MOTION":15.08839226,"ECCENTRICITY":0.00014799,"INCLINATION":53.2195,"RA_OF_ASC_NODE":36.3267,"ARG_OF_PERICENTER":84.3576,"MEAN_ANOMALY":275.7585,"EPHEMERIS_TYPE":0,"CLASSIFICATION_TYPE":"U","NORAD_CAT_ID":52840,"ELEMENT_SET_NO":999,"REV_AT_EPOCH":20571,"BSTAR":0.0001480719,"MEAN_MOTION_DOT":2.069e-5,"MEAN_MOTION_DDOT":0},{"OBJECT_NAME":"LEMUR-2-TILLINFINITY","OBJECT_ID":"2025-061F","EPOCH":"2026-03-09T21:40:30.357696","MEAN_MOTION":15.139452,"ECCENTRICITY":0.00168906,"INCLINATION":97.5532,"RA_OF_ASC_NODE":45.5587,"ARG_OF_PERICENTER":226.702,"MEAN_ANOMALY":133.2804,"EPHEMERIS_TYPE":0,"CLASSIFICATION_TYPE":"U","NORAD_CAT_ID":63356,"ELEMENT_SET_NO":999,"REV_AT_EPOCH":5261,"BSTAR":0.00030453504,"MEAN_MOTION_DOT":5.472e-5,"MEAN_MOTION_DDOT":0}]
